{
  "type": "FeatureCollection",
  "features": [
    {
      "type": "Feature",
      "properties": {
        "norad_id": 15362,
        "name": "NOVA 3",
        "group": "nnss",
        "lat": 64.6994770797866,
        "lon": -99.10772359653832,
        "alt_km": 1188.9936150340754,
        "timestamp": "2025-12-21T03:56:51.105562+00:00",
        "meta_object_name": "NOVA 3",
        "meta_object_id": "1984-110A",
        "meta_epoch": "2025-12-20T18:53:57.522048",
        "meta_mean_motion": 13.23045473,
        "meta_eccentricity": 0.0029997,
        "meta_inclination": 90.1221,
        "meta_ra_of_asc_node": 80.6294,
        "meta_arg_of_pericenter": 308.824,
        "meta_mean_anomaly": 171.7165,
        "meta_ephemeris_type": 0,
        "meta_classification_type": "U",
        "meta_norad_cat_id": 15362,
        "meta_element_set_no": 999,
        "meta_rev_at_epoch": 98805,
        "meta_bstar": 0.00011296,
        "meta_mean_motion_dot": 5.6e-07,
        "meta_mean_motion_ddot": 0,
        "tle_line1": "1 15362U 84110A   25354.78747132  .00000056  00000+0  11296-3 0  9991",
        "tle_line2": "2 15362  90.1221  80.6294 0029997 308.8240 171.7165 13.23045473988054"
      },
      "geometry": {
        "type": "Point",
        "coordinates": [
          -99.10772359653832,
          64.6994770797866
        ]
      }
    },
    {
      "type": "Feature",
      "properties": {
        "norad_id": 15935,
        "name": "OSCAR 30",
        "group": "nnss",
        "lat": -51.10658557789318,
        "lon": -80.22038453286319,
        "alt_km": 1256.0989777176674,
        "timestamp": "2025-12-21T03:56:51.105572+00:00",
        "meta_object_name": "OSCAR 30",
        "meta_object_id": "1985-066A",
        "meta_epoch": "2025-12-20T20:09:09.954720",
        "meta_mean_motion": 13.36079432,
        "meta_eccentricity": 0.0169171,
        "meta_inclination": 90.1655,
        "meta_ra_of_asc_node": 99.9796,
        "meta_arg_of_pericenter": 61.2952,
        "meta_mean_anomaly": 48.1693,
        "meta_ephemeris_type": 0,
        "meta_classification_type": "U",
        "meta_norad_cat_id": 15935,
        "meta_element_set_no": 999,
        "meta_rev_at_epoch": 96561,
        "meta_bstar": 0.00010448,
        "meta_mean_motion_dot": 6.8e-07,
        "meta_mean_motion_ddot": 0,
        "tle_line1": "1 15935U 85066A   25354.83969855  .00000068  00000+0  10448-3 0  9993",
        "tle_line2": "2 15935  90.1655  99.9796 0169171  61.2952  48.1693 13.36079432965616"
      },
      "geometry": {
        "type": "Point",
        "coordinates": [
          -80.22038453286319,
          -51.10658557789318
        ]
      }
    },
    {
      "type": "Feature",
      "properties": {
        "norad_id": 15936,
        "name": "OSCAR 24",
        "group": "nnss",
        "lat": -59.905283426551286,
        "lon": 92.76358274683638,
        "alt_km": 1206.534969670015,
        "timestamp": "2025-12-21T03:56:51.105583+00:00",
        "meta_object_name": "OSCAR 24",
        "meta_object_id": "1985-066B",
        "meta_epoch": "2025-12-20T19:49:13.393344",
        "meta_mean_motion": 13.35936837,
        "meta_eccentricity": 0.0170283,
        "meta_inclination": 90.1791,
        "meta_ra_of_asc_node": 92.4484,
        "meta_arg_of_pericenter": 67.7638,
        "meta_mean_anomaly": 46.3232,
        "meta_ephemeris_type": 0,
        "meta_classification_type": "U",
        "meta_norad_cat_id": 15936,
        "meta_element_set_no": 999,
        "meta_rev_at_epoch": 96751,
        "meta_bstar": 0.00010513,
        "meta_mean_motion_dot": 6.8e-07,
        "meta_mean_motion_ddot": 0,
        "tle_line1": "1 15936U 85066B   25354.82584946  .00000068  00000+0  10513-3 0  9990",
        "tle_line2": "2 15936  90.1791  92.4484 0170283  67.7638  46.3232 13.35936837967518"
      },
      "geometry": {
        "type": "Point",
        "coordinates": [
          92.76358274683638,
          -59.905283426551286
        ]
      }
    },
    {
      "type": "Feature",
      "properties": {
        "norad_id": 17070,
        "name": "POLAR BEAR",
        "group": "nnss",
        "lat": -68.76992327732535,
        "lon": 4.422647311394786,
        "alt_km": 1015.3801217707514,
        "timestamp": "2025-12-21T03:56:51.105593+00:00",
        "meta_object_name": "POLAR BEAR",
        "meta_object_id": "1986-088A",
        "meta_epoch": "2025-12-20T19:48:49.931424",
        "meta_mean_motion": 13.75252378,
        "meta_eccentricity": 0.004128,
        "meta_inclination": 89.6171,
        "meta_ra_of_asc_node": 183.45,
        "meta_arg_of_pericenter": 95.9604,
        "meta_mean_anomaly": 275.7047,
        "meta_ephemeris_type": 0,
        "meta_classification_type": "U",
        "meta_norad_cat_id": 17070,
        "meta_element_set_no": 999,
        "meta_rev_at_epoch": 96090,
        "meta_bstar": 8.5364e-05,
        "meta_mean_motion_dot": 9.4e-07,
        "meta_mean_motion_ddot": 0,
        "tle_line1": "1 17070U 86088A   25354.82557791  .00000094  00000+0  85364-4 0  9990",
        "tle_line2": "2 17070  89.6171 183.4500 0041280  95.9604 275.7047 13.75252378960907"
      },
      "geometry": {
        "type": "Point",
        "coordinates": [
          4.422647311394786,
          -68.76992327732535
        ]
      }
    },
    {
      "type": "Feature",
      "properties": {
        "norad_id": 18361,
        "name": "OSCAR 27",
        "group": "nnss",
        "lat": -52.0085464461979,
        "lon": 80.06663739186219,
        "alt_km": 1121.9745875477602,
        "timestamp": "2025-12-21T03:56:51.105602+00:00",
        "meta_object_name": "OSCAR 27",
        "meta_object_id": "1987-080A",
        "meta_epoch": "2025-12-20T19:16:52.982400",
        "meta_mean_motion": 13.44908235,
        "meta_eccentricity": 0.0103571,
        "meta_inclination": 90.374,
        "meta_ra_of_asc_node": 79.574,
        "meta_arg_of_pericenter": 200.5384,
        "meta_mean_anomaly": 159.1587,
        "meta_ephemeris_type": 0,
        "meta_classification_type": "U",
        "meta_norad_cat_id": 18361,
        "meta_element_set_no": 999,
        "meta_rev_at_epoch": 87665,
        "meta_bstar": 0.00014449,
        "meta_mean_motion_dot": 9.6e-07,
        "meta_mean_motion_ddot": 0,
        "tle_line1": "1 18361U 87080A   25354.80339100  .00000096  00000+0  14449-3 0  9994",
        "tle_line2": "2 18361  90.3740  79.5740 0103571 200.5384 159.1587 13.44908235876652"
      },
      "geometry": {
        "type": "Point",
        "coordinates": [
          80.06663739186219,
          -52.0085464461979
        ]
      }
    },
    {
      "type": "Feature",
      "properties": {
        "norad_id": 18362,
        "name": "OSCAR 29",
        "group": "nnss",
        "lat": -53.63515853633273,
        "lon": 80.55669128118846,
        "alt_km": 1090.4278566861203,
        "timestamp": "2025-12-21T03:56:51.105612+00:00",
        "meta_object_name": "OSCAR 29",
        "meta_object_id": "1987-080B",
        "meta_epoch": "2025-12-20T19:54:26.092224",
        "meta_mean_motion": 13.44449737,
        "meta_eccentricity": 0.0104417,
        "meta_inclination": 90.3751,
        "meta_ra_of_asc_node": 80.0344,
        "meta_arg_of_pericenter": 223.7095,
        "meta_mean_anomaly": 261.0349,
        "meta_ephemeris_type": 0,
        "meta_classification_type": "U",
        "meta_norad_cat_id": 18362,
        "meta_element_set_no": 999,
        "meta_rev_at_epoch": 87618,
        "meta_bstar": 0.00012544,
        "meta_mean_motion_dot": 8.3e-07,
        "meta_mean_motion_ddot": 0,
        "tle_line1": "1 18362U 87080B   25354.82946866  .00000083  00000+0  12544-3 0  9990",
        "tle_line2": "2 18362  90.3751  80.0344 0104417 223.7095 261.0349 13.44449737876182"
      },
      "geometry": {
        "type": "Point",
        "coordinates": [
          80.55669128118846,
          -53.63515853633273
        ]
      }
    },
    {
      "type": "Feature",
      "properties": {
        "norad_id": 19070,
        "name": "OSCAR 23",
        "group": "nnss",
        "lat": -62.69424912576916,
        "lon": 17.274645467170206,
        "alt_km": 1272.3721664938457,
        "timestamp": "2025-12-21T03:56:51.105622+00:00",
        "meta_object_name": "OSCAR 23",
        "meta_object_id": "1988-033A",
        "meta_epoch": "2025-12-20T14:23:51.321984",
        "meta_mean_motion": 13.27788452,
        "meta_eccentricity": 0.0190178,
        "meta_inclination": 90.3204,
        "meta_ra_of_asc_node": 16.6361,
        "meta_arg_of_pericenter": 158.1011,
        "meta_mean_anomaly": 320.7202,
        "meta_ephemeris_type": 0,
        "meta_classification_type": "U",
        "meta_norad_cat_id": 19070,
        "meta_element_set_no": 999,
        "meta_rev_at_epoch": 82357,
        "meta_bstar": 0.00014595,
        "meta_mean_motion_dot": 8.2e-07,
        "meta_mean_motion_ddot": 0,
        "tle_line1": "1 19070U 88033A   25354.59989956  .00000082  00000+0  14595-3 0  9994",
        "tle_line2": "2 19070  90.3204  16.6361 0190178 158.1011 320.7202 13.27788452823571"
      },
      "geometry": {
        "type": "Point",
        "coordinates": [
          17.274645467170206,
          -62.69424912576916
        ]
      }
    }
  ]
}